{
    "links": {
        "self": "http://www.neowsapp.com/rest/v1/neo/3825815?api_key=iIulBulltgU6a56xZRHN4H3l9WmuAYTsLGpBGhQ2"
    },
    "id": "3825815",
    "neo_reference_id": "3825815",
    "name": "(2018 NG15)",
    "designation": "2018 NG15",
    "nasa_jpl_url": "http://ssd.jpl.nasa.gov/sbdb.cgi?sstr=3825815",
    "absolute_magnitude_h": 23.484,
    "estimated_diameter": {
        "kilometers": {
            "estimated_diameter_min": 0.053426285,
            "estimated_diameter_max": 0.1194648051
        },
        "meters": {
            "estimated_diameter_min": 53.4262850083,
            "estimated_diameter_max": 119.4648050638
        },
        "miles": {
            "estimated_diameter_min": 0.0331975441,
            "estimated_diameter_max": 0.0742319654
        },
        "feet": {
            "estimated_diameter_min": 175.2830929066,
            "estimated_diameter_max": 391.9449110455
        }
    },
    "is_potentially_hazardous_asteroid": false,
    "close_approach_data": [
        {
            "close_approach_date": "2018-07-18",
            "close_approach_date_full": "2018-Jul-18 06:40",
            "epoch_date_close_approach": 1531896000000,
            "relative_velocity": {
                "kilometers_per_second": "9.2111742681",
                "kilometers_per_hour": "33160.2273652519",
                "miles_per_hour": "20604.47572037"
            },
            "miss_distance": {
                "astronomical": "0.1584216573",
                "lunar": "61.6260246897",
                "kilometers": "23699542.493949951",
                "miles": "14726212.8421772838"
            },
            "orbiting_body": "Earth"
        }
    ],
    "orbital_data": {
        "orbit_id": "1",
        "orbit_determination_date": "2018-07-25 06:21:27",
        "first_observation_date": "2018-07-12",
        "last_observation_date": "2018-07-13",
        "data_arc_in_days": 1,
        "observations_used": 7,
        "orbit_uncertainty": "9",
        "minimum_orbit_intersection": ".0851714",
        "jupiter_tisserand_invariant": "4.359",
        "epoch_osculation": "2458312.5",
        "eccentricity": ".3232807225684275",
        "semi_major_axis": "1.560934307145258",
        "inclination": "8.240467288540303",
        "ascending_node_longitude": "104.5518420531692",
        "orbital_period": "712.3203729878429",
        "perihelion_distance": "1.056314336449491",
        "perihelion_argument": "226.1955799876342",
        "aphelion_distance": "2.065554277841025",
        "perihelion_time": "2458345.039512661879",
        "mean_anomaly": "343.5548371175447",
        "mean_motion": ".5053905709448858",
        "equinox": "J2000",
        "orbit_class": {
            "orbit_class_type": "AMO",
            "orbit_class_description": "Near-Earth asteroid orbits similar to that of 1221 Amor",
            "orbit_class_range": "1.017 AU < q (perihelion) < 1.3 AU"
        }
    },
    "is_sentry_object": false
}